{"spkid": "50675252", "covariance": {"data": [["4.819257632352825E-15", "-6.57369320846501E-15", "-5.966047256289155E-13", "1.225525215745638E-16", "1.266548556007409E-13", "-5.603782165502918E-14"], ["-6.57369320846501E-15", "8.975719162622056E-15", "7.56512899595527E-13", "4.784679079362299E-15", "-2.064199190727798E-13", "6.999773769453084E-14"], ["-5.966047256289155E-13", "7.56512899595527E-13", "8.758098158678135E-10", "-6.56491916347313E-11", "4.795066836745752E-10", "8.652183754817243E-11"], ["1.225525215745638E-16", "4.784679079362299E-15", "-6.56491916347313E-11", "7.685708440902059E-10", "-7.948632824542966E-10", "1.122096685142293E-10"], ["1.266548556007409E-13", "-2.064199190727798E-13", "4.795066836745752E-10", "-7.948632824542966E-10", "1.068541009093072E-9", "-7.16618767120609E-11"], ["-5.603782165502918E-14", "6.999773769453084E-14", "8.652183754817243E-11", "1.122096685142293E-10", "-7.16618767120609E-11", "1.114544086659915E-10"]], "elements": [{"label": "e", "units": null, "value": ".385591744104139", "title": "eccentricity", "sigma": 6.94208731748083e-08, "name": "e"}, {"units": "au", "value": ".8376921495002466", "title": "perihelion distance", "sigma": 9.47402721265991e-08, "name": "q", "label": "q"}, {"sigma": 2.95940841363238e-05, "name": "tp", "value": "2457544.756924469114", "title": "time of perihelion passage", "units": "TDB", "label": "tp"}, {"label": "node", "title": "longitude of the ascending node", "value": "97.39469619162769", "units": "deg", "name": "om", "sigma": 2.77231102888945e-05}, {"label": "peri", "sigma": 3.26885455334598e-05, "name": "w", "title": "argument of perihelion", "value": "305.1996356477463", "units": "deg"}, {"label": "i", "title": "inclination", "value": "8.346204928946914", "units": "deg", "name": "i", "sigma": 1.05571970080127e-05}], "labels": ["e", "q", "tp", "node", "peri", "i"], "epoch": "2457773.5"}, "elements": [{"label": "e", "units": null, "title": "eccentricity", "value": ".3855924218736704", "name": "e", "sigma": "6.9577E-8"}, {"name": "a", "sigma": "4.9851E-9", "units": "au", "value": "1.363318509202893", "title": "semi-major axis", "label": "a"}, {"label": "q", "units": "au", "value": ".8376332234541479", "title": "perihelion distance", "sigma": "9.4706E-8", "name": "q"}, {"value": "8.345722195100784", "title": "inclination; angle with respect to x-y ecliptic plane", "units": "deg", "name": "i", "sigma": "1.0565E-5", "label": "i"}, {"sigma": "2.7743E-5", "name": "om", "title": "longitude of the ascending node", "value": "97.3045148740251", "units": "deg", "label": "node"}, {"sigma": "3.2672E-5", "name": "w", "title": "argument of perihelion", "value": "305.3371620533219", "units": "deg", "label": "peri"}, {"title": "mean anomaly", "value": "103.5340685272307", "units": "deg", "sigma": "1.4251E-5", "name": "ma", "label": "M"}, {"label": "tp", "name": "tp", "sigma": "2.2963E-5", "units": "TDB", "value": "2461033.285011549891", "title": "time of perihelion passage"}, {"label": "period", "sigma": "3.189E-6", "name": "per", "value": "581.4259663349991", "title": "sidereal orbital period", "units": "d"}, {"label": "n", "units": "deg/d", "title": "mean motion", "value": ".6191673933471686", "sigma": "3.3961E-9", "name": "n"}, {"title": "aphelion distance", "value": "1.889003794951639", "units": "au", "name": "ad", "sigma": "6.9073E-9", "label": "Q"}], "epoch": "2461200.5"}